STARLINK-36166          
1 67084U 25298K   26004.25002315 -.00011948  00000+0 -19184-3 0  9991
2 67084  69.9990 186.5549 0003319 269.2781 137.1935 15.52509221  4531
STARLINK-35794          
1 67085U 25298L   26004.25002315 -.02451640  00000+0 -57332-1 0  9996
2 67085  69.9993 186.5747 0003574 274.8822 112.1649 15.45506123  4597
STARLINK-35841          
1 67086U 25298M   26004.25002315 -.00019126  00000+0 -30895-3 0  9991
2 67086  69.9990 186.5503 0003314 270.6945 139.6041 15.52515531  4598
STARLINK-35842          
1 67087U 25298N   26004.25002315  .00047389  00000+0  10807-2 0  9992
2 67087  69.9994 186.8521 0003454 267.0123 240.6202 15.42661138  4595
STARLINK-35882          
1 67088U 25298P   26004.25002315  .00137390  00000+0  22039-2 0  9995
2 67088  69.9991 186.5462 0003399 272.8731 141.2765 15.52438853  4598
STARLINK-35763          
1 67089U 25298Q   26004.25002315 -.00084220  00000+0 -13792-2 0  9997
2 67089  69.9988 186.5441 0003171 274.6696 141.3641 15.52549735  4596
STARLINK-36060          
1 67090U 25298R   26004.25002315 -.00063065  00000+0 -10300-2 0  9995
2 67090  69.9992 186.5402 0003407 264.7755 153.2007 15.52531751  4539
STARLINK-36097          
1 67091U 25298S   26004.25002315 -.00013982  00000+0 -22498-3 0  9991
2 67091  69.9991 186.5387 0003246 271.2348 148.6480 15.52513882  4597
STARLINK-35792          
1 67092U 25298T   26004.25002315 -.00026430  00000+0 -42825-3 0  9990
2 67092  69.9989 186.5356 0003403 265.1299 156.6672 15.52522105  4537
STARLINK-35784          
1 67093U 25298U   26004.25002315 -.02043545  00000+0 -44347-1 0  9998
2 67093  69.9991 186.5437 0003582 271.7766 142.3363 15.47589410  4592
STARLINK-36202          
1 67094U 25298V   26004.25002315 -.02064963  00000+0 -40763-1 0  9994
2 67094  69.9995 186.5354 0003546 270.3310 153.3646 15.50307539  4595
STARLINK-36227          
1 67095U 25298W   26004.25002315 -.00010368  00000+0 -16606-3 0  9994
2 67095  69.9992 186.5289 0003350 268.1594 159.3892 15.52512769  4530
